{
  "type": "FeatureCollection",
  "features": [
    {
      "type": "Feature",
      "properties": {
        "norad_id": 31323,
        "name": "FENGYUN 1C DEB",
        "group": "fengyun-1c-debris",
        "lat": 53.39208884089862,
        "lon": -144.60542778281686,
        "alt_km": 776.9813400003341,
        "timestamp": "2025-12-10T04:57:29.900088+00:00",
        "meta_object_name": "FENGYUN 1C DEB",
        "meta_object_id": "1999-025BQB",
        "meta_epoch": "2025-12-08T20:24:53.296704",
        "meta_mean_motion": 14.27547712,
        "meta_eccentricity": 0.0031659,
        "meta_inclination": 99.4204,
        "meta_ra_of_asc_node": 21.0206,
        "meta_arg_of_pericenter": 90.9492,
        "meta_mean_anomaly": 269.5314,
        "meta_ephemeris_type": 0,
        "meta_classification_type": "U",
        "meta_norad_cat_id": 31323,
        "meta_element_set_no": 999,
        "meta_rev_at_epoch": 63925,
        "meta_bstar": 0.0017663,
        "meta_mean_motion_dot": 4.319e-05,
        "meta_mean_motion_ddot": 0,
        "tle_line1": "1 31323U 99025BQB 25342.85061686  .00004319  00000+0  17663-2 0  9994",
        "tle_line2": "2 31323  99.4204  21.0206 0031659  90.9492 269.5314 14.27547712639255"
      },
      "geometry": {
        "type": "Point",
        "coordinates": [
          -144.60542778281686,
          53.39208884089862
        ]
      }
    },
    {
      "type": "Feature",
      "properties": {
        "norad_id": 31324,
        "name": "FENGYUN 1C DEB",
        "group": "fengyun-1c-debris",
        "lat": -7.758393469487659,
        "lon": -93.11938740012523,
        "alt_km": 820.0148740385193,
        "timestamp": "2025-12-10T04:57:29.900098+00:00",
        "meta_object_name": "FENGYUN 1C DEB",
        "meta_object_id": "1999-025BQC",
        "meta_epoch": "2025-12-07T05:42:12.838176",
        "meta_mean_motion": 14.1468856,
        "meta_eccentricity": 0.00495023,
        "meta_inclination": 99.1231,
        "meta_ra_of_asc_node": 262.5935,
        "meta_arg_of_pericenter": 319.9543,
        "meta_mean_anomaly": 39.7984,
        "meta_ephemeris_type": 0,
        "meta_classification_type": "U",
        "meta_norad_cat_id": 31324,
        "meta_element_set_no": 999,
        "meta_rev_at_epoch": 96408,
        "meta_bstar": 0.0003363527,
        "meta_mean_motion_dot": 6.08e-06,
        "meta_mean_motion_ddot": 0,
        "tle_line1": "1 31324U 99025BQC 25341.23764859  .00000608  00000+0  33635-3 0  9993",
        "tle_line2": "2 31324  99.1231 262.5935 0049502 319.9543  39.7984 14.14688560964086"
      },
      "geometry": {
        "type": "Point",
        "coordinates": [
          -93.11938740012523,
          -7.758393469487659
        ]
      }
    },
    {
      "type": "Feature",
      "properties": {
        "norad_id": 31325,
        "name": "FENGYUN 1C DEB",
        "group": "fengyun-1c-debris",
        "lat": -62.11912778809941,
        "lon": -119.07834549347687,
        "alt_km": 793.2420820353655,
        "timestamp": "2025-12-10T04:57:29.900108+00:00",
        "meta_object_name": "FENGYUN 1C DEB",
        "meta_object_id": "1999-025BQD",
        "meta_epoch": "2025-12-08T12:49:45.026688",
        "meta_mean_motion": 14.16832394,
        "meta_eccentricity": 0.0071877,
        "meta_inclination": 98.9914,
        "meta_ra_of_asc_node": 76.6463,
        "meta_arg_of_pericenter": 232.309,
        "meta_mean_anomaly": 127.1552,
        "meta_ephemeris_type": 0,
        "meta_classification_type": "U",
        "meta_norad_cat_id": 31325,
        "meta_element_set_no": 999,
        "meta_rev_at_epoch": 59718,
        "meta_bstar": 0.0032596677,
        "meta_mean_motion_dot": 6.657e-05,
        "meta_mean_motion_ddot": 0,
        "tle_line1": "1 31325U 99025BQD 25342.53454892  .00006657  00000+0  32597-2 0  9996",
        "tle_line2": "2 31325  98.9914  76.6463 0071877 232.3090 127.1552 14.16832394597181"
      },
      "geometry": {
        "type": "Point",
        "coordinates": [
          -119.07834549347687,
          -62.11912778809941
        ]
      }
    },
    {
      "type": "Feature",
      "properties": {
        "norad_id": 31326,
        "name": "FENGYUN 1C DEB",
        "group": "fengyun-1c-debris",
        "lat": 16.702234522544682,
        "lon": 48.52716775134886,
        "alt_km": 581.007289095709,
        "timestamp": "2025-12-10T04:57:29.900119+00:00",
        "meta_object_name": "FENGYUN 1C DEB",
        "meta_object_id": "1999-025BQE",
        "meta_epoch": "2025-11-25T14:42:32.298048",
        "meta_mean_motion": 14.96360134,
        "meta_eccentricity": 0.00187059,
        "meta_inclination": 99.013,
        "meta_ra_of_asc_node": 208.9742,
        "meta_arg_of_pericenter": 1.9794,
        "meta_mean_anomaly": 358.1494,
        "meta_ephemeris_type": 0,
        "meta_classification_type": "U",
        "meta_norad_cat_id": 31326,
        "meta_element_set_no": 999,
        "meta_rev_at_epoch": 73489,
        "meta_bstar": 0.0084230344,
        "meta_mean_motion_dot": 0.00096893,
        "meta_mean_motion_ddot": 0,
        "tle_line1": "1 31326U 99025BQE 25329.61287382  .00096893  00000+0  84230-2 0  9991",
        "tle_line2": "2 31326  99.0130 208.9742 0018705   1.9794 358.1494 14.96360134734894"
      },
      "geometry": {
        "type": "Point",
        "coordinates": [
          48.52716775134886,
          16.702234522544682
        ]
      }
    },
    {
      "type": "Feature",
      "properties": {
        "norad_id": 31327,
        "name": "FENGYUN 1C DEB",
        "group": "fengyun-1c-debris",
        "lat": -44.95483065646446,
        "lon": 156.06195761912662,
        "alt_km": 594.497617760323,
        "timestamp": "2025-12-10T04:57:29.900129+00:00",
        "meta_object_name": "FENGYUN 1C DEB",
        "meta_object_id": "1999-025BQF",
        "meta_epoch": "2025-12-06T06:09:55.835136",
        "meta_mean_motion": 15.10366865,
        "meta_eccentricity": 0.00883653,
        "meta_inclination": 98.9841,
        "meta_ra_of_asc_node": 340.5203,
        "meta_arg_of_pericenter": 31.1175,
        "meta_mean_anomaly": 329.5241,
        "meta_ephemeris_type": 0,
        "meta_classification_type": "U",
        "meta_norad_cat_id": 31327,
        "meta_element_set_no": 999,
        "meta_rev_at_epoch": 1,
        "meta_bstar": 0.0026153573,
        "meta_mean_motion_dot": 0.00047286,
        "meta_mean_motion_ddot": 0,
        "tle_line1": "1 31327U 99025BQF 25340.25689624  .00047286  00000+0  26154-2 0  9993",
        "tle_line2": "2 31327  98.9841 340.5203 0088365  31.1175 329.5241 15.10366865    10"
      },
      "geometry": {
        "type": "Point",
        "coordinates": [
          156.06195761912662,
          -44.95483065646446
        ]
      }
    },
    {
      "type": "Feature",
      "properties": {
        "norad_id": 31328,
        "name": "FENGYUN 1C DEB",
        "group": "fengyun-1c-debris",
        "lat": 55.939267374735515,
        "lon": -54.71133681212529,
        "alt_km": 862.1672767476484,
        "timestamp": "2025-12-10T04:57:29.900140+00:00",
        "meta_object_name": "FENGYUN 1C DEB",
        "meta_object_id": "1999-025BQG",
        "meta_epoch": "2025-12-08T15:42:57.818304",
        "meta_mean_motion": 14.28942213,
        "meta_eccentricity": 0.01034175,
        "meta_inclination": 98.4827,
        "meta_ra_of_asc_node": 316.532,
        "meta_arg_of_pericenter": 228.5536,
        "meta_mean_anomaly": 130.6729,
        "meta_ephemeris_type": 0,
        "meta_classification_type": "U",
        "meta_norad_cat_id": 31328,
        "meta_element_set_no": 999,
        "meta_rev_at_epoch": 97404,
        "meta_bstar": 0.00015815281,
        "meta_mean_motion_dot": 3.8e-06,
        "meta_mean_motion_ddot": 0,
        "tle_line1": "1 31328U 99025BQG 25342.65483586  .00000380  00000+0  15815-3 0  9996",
        "tle_line2": "2 31328  98.4827 316.5320 0103417 228.5536 130.6729 14.28942213974042"
      },
      "geometry": {
        "type": "Point",
        "coordinates": [
          -54.71133681212529,
          55.939267374735515
        ]
      }
    },
    {
      "type": "Feature",
      "properties": {
        "norad_id": 31330,
        "name": "FENGYUN 1C DEB",
        "group": "fengyun-1c-debris",
        "lat": 19.620399001442127,
        "lon": -28.5554584638633,
        "alt_km": 536.503295113549,
        "timestamp": "2025-12-10T04:57:29.900150+00:00",
        "meta_object_name": "FENGYUN 1C DEB",
        "meta_object_id": "1999-025BQJ",
        "meta_epoch": "2025-12-09T17:09:33.286176",
        "meta_mean_motion": 15.09146452,
        "meta_eccentricity": 0.0006585,
        "meta_inclination": 98.8866,
        "meta_ra_of_asc_node": 147.6782,
        "meta_arg_of_pericenter": 227.5613,
        "meta_mean_anomaly": 142.9976,
        "meta_ephemeris_type": 0,
        "meta_classification_type": "U",
        "meta_norad_cat_id": 31330,
        "meta_element_set_no": 999,
        "meta_rev_at_epoch": 97084,
        "meta_bstar": 0.012862,
        "meta_mean_motion_dot": 0.0021014,
        "meta_mean_motion_ddot": 0,
        "tle_line1": "1 31330U 99025BQJ 25343.71496859  .00210140  00000+0  12862-1 0  9998",
        "tle_line2": "2 31330  98.8866 147.6782 0006585 227.5613 142.9976 15.09146452970845"
      },
      "geometry": {
        "type": "Point",
        "coordinates": [
          -28.5554584638633,
          19.620399001442127
        ]
      }
    }
  ]
}